{"type": "FeatureCollection", "features": [ {"type": "Feature", "properties": {"norad_id": 31150, "name": "FENGYUN 1C DEB", "group": "fengyun-1c-debris", "lat": 17.132498137526593, "lon": 4.866877771665575, "alt_km": 853.8376615375364, "timestamp": "2025-12-25T07:00:34.327579+00:00", "meta": {"OBJECT_NAME": "FENGYUN 1C DEB", "OBJECT_ID": "1999-025BHC", "EPOCH": "2025-12-23T07:24:25.075584", "MEAN_MOTION": 14.12739206, "ECCENTRICITY": 0.00157308, "INCLINATION": 98.6854, "RA_OF_ASC_NODE": 5.6444, "ARG_OF_PERICENTER": 130.5233, "MEAN_ANOMALY": 245.238, "EPHEMERIS_TYPE": 0, "CLASSIFICATION_TYPE": "U", "NORAD_CAT_ID": 31150, "ELEMENT_SET_NO": 999, "REV_AT_EPOCH": 96446, "BSTAR": 0.00014385213, "MEAN_MOTION_DOT": 2.25e-06, "MEAN_MOTION_DDOT": 0}, "tle": {"line1": "1 31150U 99025BHC 25357.30862356  .00000225  00000+0  14385-3 0  9992", "line2": "2 31150  98.6854   5.6444 0015730 130.5233 245.2380 14.12739206964466"}}, "geometry": {"type": "Point", "coordinates": [4.866877771665575, 17.132498137526593]}}, {"type": "Feature", "properties": {"norad_id": 31151, "name": "FENGYUN 1C DEB", "group": "fengyun-1c-debris", "lat": 51.3934933393422, "lon": -6.374518777466333, "alt_km": 782.2067675204426, "timestamp": "2025-12-25T07:00:34.327589+00:00", "meta": {"OBJECT_NAME": "FENGYUN 1C DEB", "OBJECT_ID": "1999-025BHD", "EPOCH": "2025-12-22T11:24:18.125856", "MEAN_MOTION": 14.25906921, "ECCENTRICITY": 0.00563274, "INCLINATION": 99.1351, "RA_OF_ASC_NODE": 2.3164, "ARG_OF_PERICENTER": 357.1221, "MEAN_ANOMALY": 2.9626, "EPHEMERIS_TYPE": 0, "CLASSIFICATION_TYPE": "U", "NORAD_CAT_ID": 31151, "ELEMENT_SET_NO": 999, "REV_AT_EPOCH": 96113, "BSTAR": 0.0023357835, "MEAN_MOTION_DOT": 5.613e-05, "MEAN_MOTION_DDOT": 0}, "tle": {"line1": "1 31151U 99025BHD 25356.47520979  .00005613  00000+0  23358-2 0  9997", "line2": "2 31151  99.1351   2.3164 0056327 357.1221   2.9626 14.25906921961135"}}, "geometry": {"type": "Point", "coordinates": [-6.374518777466333, 51.3934933393422]}}, {"type": "Feature", "properties": {"norad_id": 31152, "name": "FENGYUN 1C DEB", "group": "fengyun-1c-debris", "lat": -43.32824095588694, "lon": 157.56576826670587, "alt_km": 840.3706748678615, "timestamp": "2025-12-25T07:00:34.327600+00:00", "meta": {"OBJECT_NAME": "FENGYUN 1C DEB", "OBJECT_ID": "1999-025BHE", "EPOCH": "2025-12-24T10:36:14.536224", "MEAN_MOTION": 14.35857873, "ECCENTRICITY": 0.01294685, "INCLINATION": 98.4153, "RA_OF_ASC_NODE": 344.7627, "ARG_OF_PERICENTER": 358.5548, "MEAN_ANOMALY": 154.0061, "EPHEMERIS_TYPE": 0, "CLASSIFICATION_TYPE": "U", "NORAD_CAT_ID": 31152, "ELEMENT_SET_NO": 999, "REV_AT_EPOCH": 98216, "BSTAR": 0.00011929315, "MEAN_MOTION_DOT": 3.34e-06, "MEAN_MOTION_DDOT": 0}, "tle": {"line1": "1 31152U 99025BHE 25358.44183491  .00000334  00000+0  11929-3 0  9998", "line2": "2 31152  98.4153 344.7627 0129468 358.5548 154.0061 14.35857873982169"}}, "geometry": {"type": "Point", "coordinates": [157.56576826670587, -43.32824095588694]}}, {"type": "Feature", "properties": {"norad_id": 31155, "name": "FENGYUN 1C DEB", "group": "fengyun-1c-debris", "lat": -26.322431188242437, "lon": 72.76509477278509, "alt_km": 806.6588366321084, "timestamp": "2025-12-25T07:00:34.327610+00:00", "meta": {"OBJECT_NAME": "FENGYUN 1C DEB", "OBJECT_ID": "1999-025BHH", "EPOCH": "2025-12-24T15:47:19.171392", "MEAN_MOTION": 14.08371508, "ECCENTRICITY": 0.00887031, "INCLINATION": 99.041, "RA_OF_ASC_NODE": 67.6119, "ARG_OF_PERICENTER": 329.017, "MEAN_ANOMALY": 30.5783, "EPHEMERIS_TYPE": 0, "CLASSIFICATION_TYPE": "U", "NORAD_CAT_ID": 31155, "ELEMENT_SET_NO": 999, "REV_AT_EPOCH": 95755, "BSTAR": 0.0010957238, "MEAN_MOTION_DOT": 1.899e-05, "MEAN_MOTION_DDOT": 0}, "tle": {"line1": "1 31155U 99025BHH 25358.65786078  .00001899  00000+0  10957-2 0  9990", "line2": "2 31155  99.0410  67.6119 0088703 329.0170  30.5783 14.08371508957552"}}, "geometry": {"type": "Point", "coordinates": [72.76509477278509, -26.322431188242437]}}, {"type": "Feature", "properties": {"norad_id": 31157, "name": "FENGYUN 1C DEB", "group": "fengyun-1c-debris", "lat": -13.638345954393115, "lon": 160.26218764419886, "alt_km": 828.2671131762181, "timestamp": "2025-12-25T07:00:34.327620+00:00", "meta": {"OBJECT_NAME": "FENGYUN 1C DEB", "OBJECT_ID": "1999-025BHK", "EPOCH": "2025-12-15T04:42:10.430784", "MEAN_MOTION": 14.22565872, "ECCENTRICITY": 0.01000722, "INCLINATION": 98.4799, "RA_OF_ASC_NODE": 332.6191, "ARG_OF_PERICENTER": 319.3006, "MEAN_ANOMALY": 40.0724, "EPHEMERIS_TYPE": 0, "CLASSIFICATION_TYPE": "U", "NORAD_CAT_ID": 31157, "ELEMENT_SET_NO": 999, "REV_AT_EPOCH": 97018, "BSTAR": 0.00031840475, "MEAN_MOTION_DOT": 7.06e-06, "MEAN_MOTION_DDOT": 0}, "tle": {"line1": "1 31157U 99025BHK 25349.19595406  .00000706  00000+0  31840-3 0  9995", "line2": "2 31157  98.4799 332.6191 0100072 319.3006  40.0724 14.22565872970186"}}, "geometry": {"type": "Point", "coordinates": [160.26218764419886, -13.638345954393115]}}, {"type": "Feature", "properties": {"norad_id": 31158, "name": "FENGYUN 1C DEB", "group": "fengyun-1c-debris", "lat": 49.85135388840591, "lon": -91.32285048872961, "alt_km": 798.4700652107513, "timestamp": "2025-12-25T07:00:34.327630+00:00", "meta": {"OBJECT_NAME": "FENGYUN 1C DEB", "OBJECT_ID": "1999-025BHL", "EPOCH": "2025-12-21T11:56:21.493536", "MEAN_MOTION": 14.33299733, "ECCENTRICITY": 0.00468097, "INCLINATION": 98.7797, "RA_OF_ASC_NODE": 74.2735, "ARG_OF_PERICENTER": 8.2217, "MEAN_ANOMALY": 351.9724, "EPHEMERIS_TYPE": 0, "CLASSIFICATION_TYPE": "U", "NORAD_CAT_ID": 31158, "ELEMENT_SET_NO": 999, "REV_AT_EPOCH": 64605, "BSTAR": 0.0012542591, "MEAN_MOTION_DOT": 3.451e-05, "MEAN_MOTION_DDOT": 0}, "tle": {"line1": "1 31158U 99025BHL 25355.49747099  .00003451  00000+0  12543-2 0  9991", "line2": "2 31158  98.7797  74.2735 0046809   8.2217 351.9724 14.33299733646058"}}, "geometry": {"type": "Point", "coordinates": [-91.32285048872961, 49.85135388840591]}}, {"type": "Feature", "properties": {"norad_id": 31159, "name": "FENGYUN 1C DEB", "group": "fengyun-1c-debris", "lat": 9.007669931994865, "lon": -41.53913918736016, "alt_km": 392.133806202909, "timestamp": "2025-12-25T07:00:34.327646+00:00", "meta": {"OBJECT_NAME": "FENGYUN 1C DEB", "OBJECT_ID": "1999-025BHM", "EPOCH": "2025-12-24T15:22:37.463232", "MEAN_MOTION": 15.39999137, "ECCENTRICITY": 0.01060224, "INCLINATION": 97.8003, "RA_OF_ASC_NODE": 319.0118, "ARG_OF_PERICENTER": 331.376, "MEAN_ANOMALY": 28.1688, "EPHEMERIS_TYPE": 0, "CLASSIFICATION_TYPE": "U", "NORAD_CAT_ID": 31159, "ELEMENT_SET_NO": 999, "REV_AT_EPOCH": 99736, "BSTAR": 0.0016103955, "MEAN_MOTION_DOT": 0.00078937, "MEAN_MOTION_DDOT": 0}, "tle": {"line1": "1 31159U 99025BHM 25358.64071138  .00078937  00000+0  16104-2 0  9994", "line2": "2 31159  97.8003 319.0118 0106022 331.3760  28.1688 15.39999137997368"}}, "geometry": {"type": "Point", "coordinates": [-41.53913918736016, 9.007669931994865]}}, {"type": "Feature", "properties": {"norad_id": 31160, "name": "FENGYUN 1C DEB", "group": "fengyun-1c-debris", "lat": 27.842242831937526, "lon": -119.67837160649843, "alt_km": 878.950688779033, "timestamp": "2025-12-25T07:00:34.327668+00:00", "meta": {"OBJECT_NAME": "FENGYUN 1C DEB", "OBJECT_ID": "1999-025BHN", "EPOCH": "2025-12-23T21:41:00.062016", "MEAN_MOTION": 13.99593412, "ECCENTRICITY": 0.0057633, "INCLINATION": 99.0833, "RA_OF_ASC_NODE": 54.0972, "ARG_OF_PERICENTER": 224.8785, "MEAN_ANOMALY": 134.7712, "EPHEMERIS_TYPE": 0, "CLASSIFICATION_TYPE": "U", "NORAD_CAT_ID": 31160, "ELEMENT_SET_NO": 999, "REV_AT_EPOCH": 69755, "BSTAR": -5.6933e-05, "MEAN_MOTION_DOT": -1.29e-06, "MEAN_MOTION_DDOT": 0}, "tle": {"line1": "1 31160U 99025BHN 25357.90347294 -.00000129  00000+0 -56933-4 0  9999", "line2": "2 31160  99.0833  54.0972 0057633 224.8785 134.7712 13.99593412697555"}}, "geometry": {"type": "Point", "coordinates": [-119.67837160649843, 27.842242831937526]}}, {"type": "Feature", "properties": {"norad_id": 31161, "name": "FENGYUN 1C DEB", "group": "fengyun-1c-debris", "lat": -80.99009000700781, "lon": 96.69245807810786, "alt_km": 832.6446509290336, "timestamp": "2025-12-25T07:00:34.327691+00:00", "meta": {"OBJECT_NAME": "FENGYUN 1C DEB", "OBJECT_ID": "1999-025BHP", "EPOCH": "2025-12-23T19:38:15.716544", "MEAN_MOTION": 14.09262541, "ECCENTRICITY": 0.00679423, "INCLINATION": 98.7477, "RA_OF_ASC_NODE": 19.0826, "ARG_OF_PERICENTER": 318.5499, "MEAN_ANOMALY": 41.0529, "EPHEMERIS_TYPE": 0, "CLASSIFICATION_TYPE": "U", "NORAD_CAT_ID": 31161, "ELEMENT_SET_NO": 999, "REV_AT_EPOCH": 96258, "BSTAR": 0.00024236438, "MEAN_MOTION_DOT": 3.87e-06, "MEAN_MOTION_DDOT": 0}, "tle": {"line1": "1 31161U 99025BHP 25357.81823746  .00000387  00000+0  24236-3 0  9995", "line2": "2 31161  98.7477  19.0826 0067942 318.5499  41.0529 14.09262541962584"}}, "geometry": {"type": "Point", "coordinates": [96.69245807810786, -80.99009000700781]}}, {"type": "Feature", "properties": {"norad_id": 31165, "name": "FENGYUN 1C DEB", "group": "fengyun-1c-debris", "lat": 49.0134380876694, "lon": -109.41369030863062, "alt_km": 632.137227159632, "timestamp": "2025-12-25T07:00:34.327714+00:00", "meta": {"OBJECT_NAME": "FENGYUN 1C DEB", "OBJECT_ID": "1999-025BHT", "EPOCH": "2025-12-24T02:48:27.724320", "MEAN_MOTION": 14.71218938, "ECCENTRICITY": 0.00695704, "INCLINATION": 98.8836, "RA_OF_ASC_NODE": 58.935, "ARG_OF_PERICENTER": 199.3227, "MEAN_ANOMALY": 191.4631, "EPHEMERIS_TYPE": 0, "CLASSIFICATION_TYPE": "U", "NORAD_CAT_ID": 31165, "ELEMENT_SET_NO": 999, "REV_AT_EPOCH": 98922, "BSTAR": 0.0013134818, "MEAN_MOTION_DOT": 8.356e-05, "MEAN_MOTION_DDOT": 0}, "tle": {"line1": "1 31165U 99025BHT 25358.11698755  .00008356  00000+0  13135-2 0  9992", "line2": "2 31165  98.8836  58.9350 0069570 199.3227 191.4631 14.71218938989229"}}, "geometry": {"type": "Point", "coordinates": [-109.41369030863062, 49.0134380876694]}}]}